[
    {
        "CCSDS_OMM_VERS": "3.0",
        "COMMENT": "GENERATED VIA SPACE-TRACK.ORG API",
        "CREATION_DATE": "2025-03-02T09:28:08",
        "ORIGINATOR": "18 SPCS",
        "OBJECT_NAME": "GALILEO 27 (223)",
        "OBJECT_ID": "2021-116A",
        "CENTER_NAME": "EARTH",
        "REF_FRAME": "TEME",
        "TIME_SYSTEM": "UTC",
        "MEAN_ELEMENT_THEORY": "SGP4",
        "EPOCH": "2025-03-01T12:10:55.181568",
        "MEAN_MOTION": "1.70474991",
        "ECCENTRICITY": "0.00023380",
        "INCLINATION": "57.2791",
        "RA_OF_ASC_NODE": "354.4336",
        "ARG_OF_PERICENTER": "276.9802",
        "MEAN_ANOMALY": "269.0345",
        "EPHEMERIS_TYPE": "0",
        "CLASSIFICATION_TYPE": "U",
        "NORAD_CAT_ID": "49809",
        "ELEMENT_SET_NO": "999",
        "REV_AT_EPOCH": "2012",
        "BSTAR": "0.00000000000000",
        "MEAN_MOTION_DOT": "-0.00000085",
        "MEAN_MOTION_DDOT": "0.0000000000000",
        "SEMIMAJOR_AXIS": "29600.205",
        "PERIOD": "844.699",
        "APOAPSIS": "23228.991",
        "PERIAPSIS": "23215.150",
        "OBJECT_TYPE": "PAYLOAD",
        "RCS_SIZE": "LARGE",
        "COUNTRY_CODE": "ESA",
        "LAUNCH_DATE": "2021-12-05",
        "SITE": "FRGUI",
        "DECAY_DATE": null,
        "FILE": "4656805",
        "GP_ID": "282052809",
        "TLE_LINE0": "0 GALILEO 27 (223)",
        "TLE_LINE1": "1 49809U 21116A   25060.50758312 -.00000085  00000-0  00000-0 0  9999",
        "TLE_LINE2": "2 49809  57.2791 354.4336 0002338 276.9802 269.0345  1.70474991 20127"
    }
]